{
  "type": "FeatureCollection",
  "features": [
    {
      "type": "Feature",
      "properties": {
        "norad_id": 34886,
        "name": "COSMOS 2251 DEB",
        "group": "cosmos-2251-debris",
        "lat": 12.885694702936116,
        "lon": 6.067170230928012,
        "alt_km": 471.47709923063667,
        "timestamp": "2025-12-08T15:42:50.191502+00:00",
        "meta_object_name": "COSMOS 2251 DEB",
        "meta_object_id": "1993-036ACZ",
        "meta_epoch": "2025-12-06T20:50:12.525792",
        "meta_mean_motion": 15.37603061,
        "meta_eccentricity": 0.00307569,
        "meta_inclination": 73.9508,
        "meta_ra_of_asc_node": 193.7093,
        "meta_arg_of_pericenter": 18.7929,
        "meta_mean_anomaly": 341.4404,
        "meta_ephemeris_type": 0,
        "meta_classification_type": "U",
        "meta_norad_cat_id": 34886,
        "meta_element_set_no": 999,
        "meta_rev_at_epoch": 62908,
        "meta_bstar": 0.0027638496,
        "meta_mean_motion_dot": 0.00105044,
        "meta_mean_motion_ddot": 0,
        "tle_line1": "1 34886U 93036ACZ 25340.86820053  .00105044  00000+0  27638-2 0  9997",
        "tle_line2": "2 34886  73.9508 193.7093 0030756  18.7929 341.4404 15.37603061629089"
      },
      "geometry": {
        "type": "Point",
        "coordinates": [
          6.067170230928012,
          12.885694702936116
        ]
      }
    },
    {
      "type": "Feature",
      "properties": {
        "norad_id": 34907,
        "name": "COSMOS 2251 DEB",
        "group": "cosmos-2251-debris",
        "lat": 35.87230089618934,
        "lon": 69.30491298293721,
        "alt_km": 433.7845581572574,
        "timestamp": "2025-12-08T15:42:50.191513+00:00",
        "meta_object_name": "COSMOS 2251 DEB",
        "meta_object_id": "1993-036ADC",
        "meta_epoch": "2025-12-08T06:11:55.392000",
        "meta_mean_motion": 15.40128137,
        "meta_eccentricity": 0.00196578,
        "meta_inclination": 73.9702,
        "meta_ra_of_asc_node": 58.165,
        "meta_arg_of_pericenter": 347.8557,
        "meta_mean_anomaly": 12.2173,
        "meta_ephemeris_type": 0,
        "meta_classification_type": "U",
        "meta_norad_cat_id": 34907,
        "meta_element_set_no": 999,
        "meta_rev_at_epoch": 87904,
        "meta_bstar": 0.0077771011,
        "meta_mean_motion_dot": 0.00327218,
        "meta_mean_motion_ddot": 0,
        "tle_line1": "1 34907U 93036ADC 25342.25828000  .00327218  00000+0  77771-2 0  9998",
        "tle_line2": "2 34907  73.9702  58.1650 0019657 347.8557  12.2173 15.40128137879041"
      },
      "geometry": {
        "type": "Point",
        "coordinates": [
          69.30491298293721,
          35.87230089618934
        ]
      }
    },
    {
      "type": "Feature",
      "properties": {
        "norad_id": 34908,
        "name": "COSMOS 2251 DEB",
        "group": "cosmos-2251-debris",
        "lat": -5.660471525572051,
        "lon": -147.2131146670605,
        "alt_km": 791.330151662658,
        "timestamp": "2025-12-08T15:42:50.191523+00:00",
        "meta_object_name": "COSMOS 2251 DEB",
        "meta_object_id": "1993-036ADD",
        "meta_epoch": "2025-12-08T03:18:15.253920",
        "meta_mean_motion": 14.37377139,
        "meta_eccentricity": 0.00399096,
        "meta_inclination": 74.0591,
        "meta_ra_of_asc_node": 32.1132,
        "meta_arg_of_pericenter": 49.7569,
        "meta_mean_anomaly": 341.1665,
        "meta_ephemeris_type": 0,
        "meta_classification_type": "U",
        "meta_norad_cat_id": 34908,
        "meta_element_set_no": 999,
        "meta_rev_at_epoch": 87213,
        "meta_bstar": 0.00070528822,
        "meta_mean_motion_dot": 2.101e-05,
        "meta_mean_motion_ddot": 0,
        "tle_line1": "1 34908U 93036ADD 25342.13767655  .00002101  00000+0  70529-3 0  9990",
        "tle_line2": "2 34908  74.0591  32.1132 0039909  49.7569 341.1665 14.37377139872136"
      },
      "geometry": {
        "type": "Point",
        "coordinates": [
          -147.2131146670605,
          -5.660471525572051
        ]
      }
    },
    {
      "type": "Feature",
      "properties": {
        "norad_id": 34909,
        "name": "COSMOS 2251 DEB",
        "group": "cosmos-2251-debris",
        "lat": 73.14039345049034,
        "lon": 155.67051260563102,
        "alt_km": 672.0479873873292,
        "timestamp": "2025-12-08T15:42:50.191533+00:00",
        "meta_object_name": "COSMOS 2251 DEB",
        "meta_object_id": "1993-036ADE",
        "meta_epoch": "2025-12-07T13:19:50.168064",
        "meta_mean_motion": 14.77761323,
        "meta_eccentricity": 0.00848918,
        "meta_inclination": 74.0148,
        "meta_ra_of_asc_node": 86.763,
        "meta_arg_of_pericenter": 223.7192,
        "meta_mean_anomaly": 135.724,
        "meta_ephemeris_type": 0,
        "meta_classification_type": "U",
        "meta_norad_cat_id": 34909,
        "meta_element_set_no": 999,
        "meta_rev_at_epoch": 66775,
        "meta_bstar": 0.0010824796,
        "meta_mean_motion_dot": 8.222e-05,
        "meta_mean_motion_ddot": 0,
        "tle_line1": "1 34909U 93036ADE 25341.55544176  .00008222  00000+0  10825-2 0  9999",
        "tle_line2": "2 34909  74.0148  86.7630 0084891 223.7192 135.7240 14.77761323667751"
      },
      "geometry": {
        "type": "Point",
        "coordinates": [
          155.67051260563102,
          73.14039345049034
        ]
      }
    },
    {
      "type": "Feature",
      "properties": {
        "norad_id": 34910,
        "name": "COSMOS 2251 DEB",
        "group": "cosmos-2251-debris",
        "lat": -50.62746386685705,
        "lon": 87.23419228432087,
        "alt_km": 1042.4494640891098,
        "timestamp": "2025-12-08T15:42:50.191544+00:00",
        "meta_object_name": "COSMOS 2251 DEB",
        "meta_object_id": "1993-036ADF",
        "meta_epoch": "2025-12-04T03:27:09.174816",
        "meta_mean_motion": 13.3765034,
        "meta_eccentricity": 0.04679235,
        "meta_inclination": 73.8763,
        "meta_ra_of_asc_node": 114.9889,
        "meta_arg_of_pericenter": 235.2756,
        "meta_mean_anomaly": 311.3517,
        "meta_ephemeris_type": 0,
        "meta_classification_type": "U",
        "meta_norad_cat_id": 34910,
        "meta_element_set_no": 999,
        "meta_rev_at_epoch": 81409,
        "meta_bstar": 0.0018660381,
        "meta_mean_motion_dot": 1.821e-05,
        "meta_mean_motion_ddot": 0,
        "tle_line1": "1 34910U 93036ADF 25338.14385619  .00001821  00000+0  18660-2 0  9990",
        "tle_line2": "2 34910  73.8763 114.9889 0467923 235.2756 311.3517 13.37650340814099"
      },
      "geometry": {
        "type": "Point",
        "coordinates": [
          87.23419228432087,
          -50.62746386685705
        ]
      }
    },
    {
      "type": "Feature",
      "properties": {
        "norad_id": 34911,
        "name": "COSMOS 2251 DEB",
        "group": "cosmos-2251-debris",
        "lat": 73.77191624128312,
        "lon": -6.942289527365994,
        "alt_km": 671.042354020019,
        "timestamp": "2025-12-08T15:42:50.191554+00:00",
        "meta_object_name": "COSMOS 2251 DEB",
        "meta_object_id": "1993-036ADG",
        "meta_epoch": "2025-12-08T00:33:11.051712",
        "meta_mean_motion": 14.59358852,
        "meta_eccentricity": 0.00833702,
        "meta_inclination": 74.0411,
        "meta_ra_of_asc_node": 253.7326,
        "meta_arg_of_pericenter": 20.3643,
        "meta_mean_anomaly": 354.2304,
        "meta_ephemeris_type": 0,
        "meta_classification_type": "U",
        "meta_norad_cat_id": 34911,
        "meta_element_set_no": 999,
        "meta_rev_at_epoch": 88518,
        "meta_bstar": 0.00028084005,
        "meta_mean_motion_dot": 1.363e-05,
        "meta_mean_motion_ddot": 0,
        "tle_line1": "1 34911U 93036ADG 25342.02304458  .00001363  00000+0  28084-3 0  9998",
        "tle_line2": "2 34911  74.0411 253.7326 0083370  20.3643 354.2304 14.59358852885185"
      },
      "geometry": {
        "type": "Point",
        "coordinates": [
          -6.942289527365994,
          73.77191624128312
        ]
      }
    },
    {
      "type": "Feature",
      "properties": {
        "norad_id": 34913,
        "name": "COSMOS 2251 DEB",
        "group": "cosmos-2251-debris",
        "lat": 71.9278338894341,
        "lon": 48.61913937396174,
        "alt_km": 761.1677511888365,
        "timestamp": "2025-12-08T15:42:50.191564+00:00",
        "meta_object_name": "COSMOS 2251 DEB",
        "meta_object_id": "1993-036ADJ",
        "meta_epoch": "2025-12-08T03:38:17.573856",
        "meta_mean_motion": 14.34634995,
        "meta_eccentricity": 0.00201781,
        "meta_inclination": 74.028,
        "meta_ra_of_asc_node": 290.9058,
        "meta_arg_of_pericenter": 42.3231,
        "meta_mean_anomaly": 338.4204,
        "meta_ephemeris_type": 0,
        "meta_classification_type": "U",
        "meta_norad_cat_id": 34913,
        "meta_element_set_no": 999,
        "meta_rev_at_epoch": 65122,
        "meta_bstar": 8.7332602e-05,
        "meta_mean_motion_dot": 2.21e-06,
        "meta_mean_motion_ddot": 0,
        "tle_line1": "1 34913U 93036ADJ 25342.15159229  .00000221  00000+0  87333-4 0  9993",
        "tle_line2": "2 34913  74.0280 290.9058 0020178  42.3231 338.4204 14.34634995651227"
      },
      "geometry": {
        "type": "Point",
        "coordinates": [
          48.61913937396174,
          71.9278338894341
        ]
      }
    }
  ]
}